H1 CPF 01  gfz 2023 01 02 13  5022 tandemx   
H2 1003001  6202 36605    2023 01 02 12 59 42 2023 01 07 00 00 42   120 1 1  0 0 0
H9
10 0 59948  56142.000000  0    3299463.694   3266342.627  -5096954.373
10 0 59948  56262.000000  0    3893337.576   3543359.646  -4451419.384
10 0 59948  56382.000000  0    4423727.449   3748918.652  -3727923.790
10 0 59948  56502.000000  0    4880054.392   3880577.577  -2939069.061
10 0 59948  56622.000000  0    5252983.733   3937351.162  -2098632.707
10 0 59948  56742.000000  0    5534622.499   3919712.681  -1221330.184
10 0 59948  56862.000000  0    5718692.180   3829565.563   -322555.499
10 0 59948  56982.000000  0    5800671.791   3670186.067    581893.075
10 0 59948  57102.000000  0    5777907.909   3446137.484   1476097.896
10 0 59948  57222.000000  0    5649686.814   3163157.353   2344310.931
10 0 59948  57342.000000  0    5417267.496   2828021.808   3171239.776
10 0 59948  57462.000000  0    5083874.388   2448389.536   3942325.444
10 0 59948  57582.000000  0    4654648.798   2032628.913   4644004.070
10 0 59948  57702.000000  0    4136563.990   1589634.503   5263945.692
10 0 59948  57822.000000  0    3538305.649   1128637.358   5791272.473
10 0 59948  57942.000000  0    2870115.880    659011.629   6216746.072
10 0 59948  58062.000000  0    2143610.839    190084.151   6532921.682
10 0 59948  58182.000000  0    1371575.564   -269049.030   6734272.429
10 0 59948  58302.000000  0     567736.327   -709698.356   6817282.318
10 0 59948  58422.000000  0    -253485.523  -1123744.830   6780503.270
10 0 59948  58542.000000  0   -1077232.172  -1503789.045   6624578.111
10 0 59948  58662.000000  0   -1888477.318  -1843283.611   6352228.792
10 0 59948  58782.000000  0   -2672298.053  -2136645.258   5968211.169
10 0 59948  58902.000000  0   -3414148.997  -2379347.311   5479239.957
10 0 59948  59022.000000  0   -4100137.382  -2567991.978   4893878.266
10 0 59948  59142.000000  0   -4717288.473  -2700358.624   4222391.778
10 0 59948  59262.000000  0   -5253797.212  -2775426.917   3476572.124
10 0 59948  59382.000000  0   -5699261.058  -2793374.762   2669532.439
10 0 59948  59502.000000  0   -6044890.174  -2755551.923   1815477.299
10 0 59948  59622.000000  0   -6283689.236  -2664429.816    929448.667
10 0 59948  59742.000000  0   -6410603.563  -2523525.796     27053.365
10 0 59948  59862.000000  0   -6422627.653  -2337305.734   -875819.548
10 0 59948  59982.000000  0   -6318872.481  -2111066.812  -1763288.782
10 0 59948  60102.000000  0   -6100588.103  -1850803.889  -2619768.627
10 0 59948  60222.000000  0   -5771143.942  -1563063.283  -3430248.287
10 0 59948  60342.000000  0   -5335967.416  -1254787.701  -4180557.744
10 0 59948  60462.000000  0   -4802443.162   -933156.480  -4857614.728
10 0 59948  60582.000000  0   -4179775.830   -605424.498  -5449648.768
10 0 59948  60702.000000  0   -3478819.550   -278764.149  -5946397.857
10 0 59948  60822.000000  0   -2711879.912     39886.353  -6339275.233
10 0 59948  60942.000000  0   -1892493.212    343964.869  -6621505.717
10 0 59948  61062.000000  0   -1035186.112    627414.546  -6788231.361
10 0 59948  61182.000000  0    -155221.031    884799.838  -6836585.529
10 0 59948  61302.000000  0     731669.026   1111407.353  -6765735.681
10 0 59948  61422.000000  0    1609553.934   1303328.977  -6576898.381
10 0 59948  61542.000000  0    2462587.180   1457528.660  -6273321.747
10 0 59948  61662.000000  0    3275286.976   1571890.185  -5860235.193
10 0 59948  61782.000000  0    4032813.453   1645244.978  -5344767.354
10 0 59948  61902.000000  0    4721239.022   1677380.500  -4735835.081
10 0 59948  62022.000000  0    5327809.058   1669028.972  -4044000.637
10 0 59948  62142.000000  0    5841185.110   1621835.568  -3281297.859
10 0 59948  62262.000000  0    6251666.299   1538306.713  -2461031.032
10 0 59948  62382.000000  0    6551385.110   1421739.769  -1597547.458
10 0 59948  62502.000000  0    6734470.210   1276134.902   -705986.116
10 0 59948  62622.000000  0    6797171.654   1106090.428    197991.717
10 0 59948  62742.000000  0    6737943.399    916685.308   1098484.086
10 0 59948  62862.000000  0    6557484.313    713351.373   1979635.096
10 0 59948  62982.000000  0    6258733.485    501737.157   2825924.416
10 0 59948  63102.000000  0    5846818.705    287568.227   3622448.539
10 0 59948  63222.000000  0    5328961.695     76507.102   4355189.975
10 0 59948  63342.000000  0    4714342.363   -125982.003   5011266.156
10 0 59948  63462.000000  0    4013926.710   -314763.087   5579157.738
10 0 59948  63582.000000  0    3240259.907   -485148.306   6048907.736
10 0 59948  63702.000000  0    2407233.604   -633004.298   6412290.948
10 0 59948  63822.000000  0    1529831.065   -754844.816   6662952.246
10 0 59948  63942.000000  0     623853.645   -847907.340   6796513.126
10 0 59948  64062.000000  0    -294366.472   -910212.056   6810642.738
10 0 59948  64182.000000  0   -1208260.365   -940602.501   6705094.866
10 0 59948  64302.000000  0   -2101320.091   -938767.068   6481711.366
10 0 59948  64422.000000  0   -2957395.134   -905240.611   6144391.722
10 0 59948  64542.000000  0   -3760984.440   -841386.512   5699030.843
10 0 59948  64662.000000  0   -4497521.057   -749360.168   5153422.978
10 0 59948  64782.000000  0   -5153642.850   -632054.158   4517131.208
10 0 59948  64902.000000  0   -5717442.921   -493025.559   3801323.922
10 0 59948  65022.000000  0   -6178694.285   -336407.082   3018581.169
10 0 59948  65142.000000  0   -6529045.029   -166803.823   2182675.209
10 0 59948  65262.000000  0   -6762180.359     10822.593   1308325.934
10 0 59948  65382.000000  0   -6873944.507    191278.587    410935.540
10 0 59948  65502.000000  0   -6862419.530    369269.329   -493691.020
10 0 59948  65622.000000  0   -6727958.495    539532.668  -1389633.813
10 0 59948  65742.000000  0   -6473172.071    696972.030  -2261146.181
10 0 59948  65862.000000  0   -6102872.514    836785.211  -3092937.669
10 0 59948  65982.000000  0   -5623972.973    954586.365  -3870449.222
10 0 59948  66102.000000  0   -5045344.408   1046517.357  -4580108.733
10 0 59948  66222.000000  0   -4377638.200   1109346.060  -5209564.616
10 0 59948  66342.000000  0   -3633078.131   1140549.454  -5747893.466
10 0 59948  66462.000000  0   -2825227.798   1138379.830  -6185779.686
10 0 59948  66582.000000  0   -1968738.320   1101912.690  -6515665.092
10 0 59948  66702.000000  0   -1079080.916   1031077.555  -6731868.165
10 0 59948  66822.000000  0    -172269.546    926669.491  -6830670.457
10 0 59948  66942.000000  0     735420.337    790342.057  -6810372.685
10 0 59948  67062.000000  0    1627736.025    624581.686  -6671323.166
10 0 59948  67182.000000  0    2488733.140    432663.409  -6415912.957
10 0 59948  67302.000000  0    3303054.770    218589.216  -6048539.044
10 0 59948  67422.000000  0    4056202.079    -12990.742  -5575535.838
10 0 59948  67542.000000  0    4734790.962   -256873.238  -5005076.408
10 0 59948  67662.000000  0    5326794.203   -507411.039  -4347043.834
10 0 59948  67782.000000  0    5821762.495   -758635.141  -3612870.068
10 0 59948  67902.000000  0    6211018.847  -1004387.430  -2815346.074
10 0 59948  68022.000000  0    6487822.896  -1238461.582  -1968404.937
10 0 59948  68142.000000  0    6647500.505  -1454748.361  -1086880.256
10 0 59948  68262.000000  0    6687533.816  -1647381.860   -186244.420
10 0 59948  68382.000000  0    6607609.795  -1810883.256    717667.736
10 0 59948  68502.000000  0    6409624.553  -1940298.312   1608945.543
10 0 59948  68622.000000  0    6097642.574  -2031324.967   2471891.266
10 0 59948  68742.000000  0    5677812.459  -2080427.433   3291305.989
10 0 59948  68862.000000  0    5158239.935  -2084933.461   4052764.601
10 0 59948  68982.000000  0    4548823.142  -2043113.143   4742873.530
10 0 59948  69102.000000  0    3861056.305  -1954236.531   5349507.558
10 0 59948  69222.000000  0    3107804.262  -1818610.231   5862023.174
10 0 59948  69342.000000  0    2303052.646  -1637591.249   6271441.130
10 0 59948  69462.000000  0    1461642.535  -1413578.619   6570597.898
10 0 59948  69582.000000  0     598992.573  -1149983.059   6754265.440
10 0 59948  69702.000000  0    -269185.846   -851174.383   6819236.886
10 0 59948  69822.000000  0   -1127174.446   -522408.413   6764377.854
10 0 59948  69942.000000  0   -1959531.236   -169734.749   6590644.767
10 0 59948  70062.000000  0   -2751367.148    200114.093   6301069.393
10 0 59948  70182.000000  0   -3488612.420    579850.175   5900710.173
10 0 59948  70302.000000  0   -4158269.294    961771.944   5396569.884
10 0 59948  70422.000000  0   -4748646.537   1337918.280   4797479.174
10 0 59948  70542.000000  0   -5249570.797   1700232.851   4113947.379
10 0 59948  70662.000000  0   -5652570.237   2040734.596   3357981.435
10 0 59948  70782.000000  0   -5951025.944   2351690.879   2542876.717
10 0 59948  70902.000000  0   -6140288.945   2625789.518   1682982.684
10 0 59948  71022.000000  0   -6217759.553   2856305.838    793446.087
10 0 59948  71142.000000  0   -6182924.608   3037259.843   -110063.569
10 0 59948  71262.000000  0   -6037352.481   3163559.409  -1011638.455
10 0 59948  71382.000000  0   -5784646.155   3231125.487  -1895421.461
10 0 59948  71502.000000  0   -5430355.461   3236997.105  -2745894.153
10 0 59948  71622.000000  0   -4981849.484   3179412.276  -3548155.654
10 0 59948  71742.000000  0   -4448154.990   3057863.755  -4288186.370
10 0 59948  71862.000000  0   -3839765.065   2873128.641  -4953091.019
10 0 59948  71982.000000  0   -3168423.939   2627271.489  -5531317.419
10 0 59948  72102.000000  0   -2446894.406   2323622.299  -6012847.409
10 0 59948  72222.000000  0   -1688711.513   1966730.108  -6389360.912
10 0 59948  72342.000000  0    -907926.714   1562292.081  -6654367.455
10 0 59948  72462.000000  0    -118850.400   1117061.453  -6803306.744
10 0 59948  72582.000000  0     664204.806    638735.279  -6833618.021
99
